#aV2014 12 21  0  0  0.00000000     288 DD+AD WGS84 FIT  NGA
## 1824      0.00000000   300.00000000 57012 0.0000000000000
+   32     1  2  3  4  5  6  7  8  9 10 11 12 13 14 15 16 17
+         18 19 20 21 22 23 24 25 26 27 28 29 30 31 32  0  0
+          0  0  0  0  0  0  0  0  0  0  0  0  0  0  0  0  0
+          0  0  0  0  0  0  0  0  0  0  0  0  0  0  0  0  0
+          0  0  0  0  0  0  0  0  0  0  0  0  0  0  0  0  0
++         2  2  2  2  2  2  2  2  2  2  2  2  2  2  2  2  2
++         2  2  2  2  2  2  2  2  2  2  2  2  2  2  2  0  0
++         0  0  0  0  0  0  0  0  0  0  0  0  0  0  0  0  0
++         0  0  0  0  0  0  0  0  0  0  0  0  0  0  0  0  0
++         0  0  0  0  0  0  0  0  0  0  0  0  0  0  0  0  0
%c cc cc ccc ccc cccc cccc cccc cccc ccccc ccccc ccccc ccccc
%c cc cc ccc ccc cccc cccc cccc cccc ccccc ccccc ccccc ccccc
%f  0.0000000  0.000000000  0.00000000000  0.000000000000000
%f  0.0000000  0.000000000  0.00000000000  0.000000000000000
%i    0    0    0    0      0      0      0      0         0
%i    0    0    0    0      0      0      0      0         0
/*      NGA, ST. LOUIS,MO.                                  
/*   EPHEMERIS COMPUTED FROM  1 DAYS OF DATA                
/*   EPOCHA SMOOTHER                                       
/* CCCCCCCCCCCCCCCCCCCCCCCCCCCCCCCCCCCCCCCCCCCCCCCCCCCCCCCCC
*  2014 12 21 10 20  0.00000000
P  1  15351.604755  -1473.787007  21585.352589    -10.949777                    
V  1   8159.631193  26278.109838  -3840.316468      0.003450                    
P  2 -14016.999148 -21174.240439  -8247.973531    537.126152                    
V  2   -937.271119 -11155.557288  28599.042247      0.022301                    
P  3  20966.732340  -9299.779901  13438.598074     91.651420                    
V  3  -9699.134453  14190.316268  24912.865969      0.288597                    
P  4  17005.918204  10255.886226  17448.156230     -4.580005                    
V  4   5524.100864  22147.948681 -17818.827728     -0.004499                    
P  5 -12535.608437  -9280.637517 -21558.036302   -303.323174                    
V  5  18032.561125 -20489.290958  -1492.471418      0.048280                    
P  6  -5558.830269 -25670.767455   3996.192267     31.805322                    
V  6   4204.349077   3967.748132  31216.159478      0.082985                    
P  7   9771.326032 -14460.770342 -19816.081242    424.232793                    
V  7   8528.411030  24013.160693 -13596.295265      0.035379                    
P  8  14021.731336  15126.162046 -16856.981114     16.841539                    
V  8   3231.690765  21286.496598  20913.310731      0.000843                    
P  9  17299.589853  -9258.137259 -17909.391045    -33.049645                    
V  9  21938.552727   6183.602075  17989.398511     -0.097205                    
P 10   3653.930995 -21086.221046 -15828.770706   -155.196817                    
V 10  15114.224922 -12811.485455  21483.703663     -0.017966                    
P 11  19966.900135   4186.304066  16560.770978   -545.167562                    
V 11  11105.558424  19474.401121 -17605.717420     -0.026948                    
P 12 -20345.407206   5945.245423  15792.304255    255.226851                    
V 12  13060.552900 -15513.982127  22760.638529      0.028766                    
P 13 -16259.706234 -15469.367986 -14266.821803    -71.529889                    
V 13  17545.502660   3809.617837 -24547.483124     -0.035905                    
P 14   1263.787412  15803.433321  21563.303509    104.344608                    
V 14 -25849.284263  -7039.051177   6605.694328     -0.035834                    
P 15 -26459.625635  -2016.487962   3145.540367   -221.613191                    
V 15  -3468.208805  -3946.030873 -30634.643984     -0.022473                    
P 16  11422.025686   9230.520171 -22201.319202   -171.477668                    
V 16 -19942.997806  19589.332139  -1767.764301      0.030197                    
P 17    397.546250 -15383.458406  21947.847994   -145.219484                    
V 17  26344.578422   6547.524176   3943.176172     -0.023081                    
P 18 -15017.462985  21469.938771   3629.379101    366.642808                    
V 18  -5811.351805    404.614817 -30679.045322      0.026466                    
P 19  25303.067632   8786.115230  -1300.910180   -493.343998                    
V 19  -2008.520516   1668.349291 -31567.933858     -0.015917                    
P 20  20328.533318 -13421.352869  10347.272513    269.739667                    
V 20  -5519.011794  12792.516854  27052.725275      0.042873                    
P 21  -5556.685242  19906.075988 -15786.573386   -401.439433                    
V 21  -9694.380240 -19435.682851 -20659.421683     -0.021594                    
P 22  -4925.590046  21980.624251  14156.549739    299.019403                    
V 22 -13983.132834  11414.719149 -23105.262913      0.036463                    
P 23  24724.048791  -1916.839362  -9947.045025    -76.015734                    
V 23  11879.905653   5140.544769  27746.701354     -0.027191                    
P 24 -16309.435696  -2040.469060  20868.175781    -40.447749                    
V 24  -7903.655593 -25343.094369  -8519.482790     -0.006775                    
P 25 -19694.472719  16953.674248   5025.063768      8.092414                    
V 25   2564.210937  -6419.114953  31360.796600     -0.021691                    
P 26 -21589.751099 -13283.847176  -9048.529016   -164.568095                    
V 26  10539.984338   1386.488343 -29084.935355     -0.132401                    
P 27  20513.166884  12391.548198 -11548.200640     38.615508                    
V 27 -14751.045355   -810.660558 -27019.189296      0.027233                    
P 28  10550.595752 -21431.364195  12109.687076    406.825704                    
V 28  11404.082977  -8936.889407 -27270.322904      0.027272                    
P 29 -19714.768893   6436.194241 -16541.752343    580.936537                    
V 29 -19919.005735  -7002.959499  21011.883511      0.024123                    
P 30   3096.619819 -23365.397799 -12196.538449    -85.471496                    
V 30   6089.768951  14478.516028 -26233.381806     -0.009599                    
P 31   6319.801390  25563.961725   1683.586947    326.995285                    
V 31  -3035.128579  -1165.784655  32230.162526     -0.006906                    
P 32  16899.536836   3822.574175  19982.281625   -265.873346                    
V 32 -17569.309365  18641.783379  11837.937889      0.087885                    
EOF
